<?xml version="1.0" encoding="UTF-8"?>
<ndm xmlns:xsi="http://www.w3.org/2001/XMLSchema-instance" xsi:noNamespaceSchemaLocation="https://sanaregistry.org/r/ndmxml_unqualified/ndmxml-2.0.0-master-2.0.xsd">
<omm id="CCSDS_OMM_VERS" version="2.0">
<header><CREATION_DATE/><ORIGINATOR/></header><body><segment><metadata><OBJECT_NAME>ORBCOMM FM05</OBJECT_NAME><OBJECT_ID>1997-084F</OBJECT_ID><CENTER_NAME>EARTH</CENTER_NAME><REF_FRAME>TEME</REF_FRAME><TIME_SYSTEM>UTC</TIME_SYSTEM><MEAN_ELEMENT_THEORY>SGP4</MEAN_ELEMENT_THEORY></metadata><data><meanElements><EPOCH>2025-12-23T04:58:10.284672</EPOCH><MEAN_MOTION>14.46735730</MEAN_MOTION><ECCENTRICITY>.00027779</ECCENTRICITY><INCLINATION>45.0128</INCLINATION><RA_OF_ASC_NODE>180.0000</RA_OF_ASC_NODE><ARG_OF_PERICENTER>103.1147</ARG_OF_PERICENTER><MEAN_ANOMALY>257.0015</MEAN_ANOMALY></meanElements><tleParameters><EPHEMERIS_TYPE>0</EPHEMERIS_TYPE><CLASSIFICATION_TYPE>U</CLASSIFICATION_TYPE><NORAD_CAT_ID>25117</NORAD_CAT_ID><ELEMENT_SET_NO>999</ELEMENT_SET_NO><REV_AT_EPOCH>46797</REV_AT_EPOCH><BSTAR>.36684061E-3</BSTAR><MEAN_MOTION_DOT>.1194E-4</MEAN_MOTION_DOT><MEAN_MOTION_DDOT>0</MEAN_MOTION_DDOT></tleParameters></data></segment></body></omm>
<omm id="CCSDS_OMM_VERS" version="2.0">
<header><CREATION_DATE/><ORIGINATOR/></header><body><segment><metadata><OBJECT_NAME>ORBCOMM FM06</OBJECT_NAME><OBJECT_ID>1997-084G</OBJECT_ID><CENTER_NAME>EARTH</CENTER_NAME><REF_FRAME>TEME</REF_FRAME><TIME_SYSTEM>UTC</TIME_SYSTEM><MEAN_ELEMENT_THEORY>SGP4</MEAN_ELEMENT_THEORY></metadata><data><meanElements><EPOCH>2025-12-23T21:38:35.207232</EPOCH><MEAN_MOTION>14.46900635</MEAN_MOTION><ECCENTRICITY>.00017363</ECCENTRICITY><INCLINATION>45.0119</INCLINATION><RA_OF_ASC_NODE>176.1694</RA_OF_ASC_NODE><ARG_OF_PERICENTER>115.9215</ARG_OF_PERICENTER><MEAN_ANOMALY>48.9061</MEAN_ANOMALY></meanElements><tleParameters><EPHEMERIS_TYPE>0</EPHEMERIS_TYPE><CLASSIFICATION_TYPE>U</CLASSIFICATION_TYPE><NORAD_CAT_ID>25118</NORAD_CAT_ID><ELEMENT_SET_NO>999</ELEMENT_SET_NO><REV_AT_EPOCH>46899</REV_AT_EPOCH><BSTAR>.37483552E-3</BSTAR><MEAN_MOTION_DOT>.1228E-4</MEAN_MOTION_DOT><MEAN_MOTION_DDOT>0</MEAN_MOTION_DDOT></tleParameters></data></segment></body></omm>
<omm id="CCSDS_OMM_VERS" version="2.0">
<header><CREATION_DATE/><ORIGINATOR/></header><body><segment><metadata><OBJECT_NAME>ORBCOMM FM07</OBJECT_NAME><OBJECT_ID>1997-084H</OBJECT_ID><CENTER_NAME>EARTH</CENTER_NAME><REF_FRAME>TEME</REF_FRAME><TIME_SYSTEM>UTC</TIME_SYSTEM><MEAN_ELEMENT_THEORY>SGP4</MEAN_ELEMENT_THEORY></metadata><data><meanElements><EPOCH>2025-12-23T19:31:20.088480</EPOCH><MEAN_MOTION>14.46912433</MEAN_MOTION><ECCENTRICITY>.00035331</ECCENTRICITY><INCLINATION>45.0116</INCLINATION><RA_OF_ASC_NODE>177.3429</RA_OF_ASC_NODE><ARG_OF_PERICENTER>100.6164</ARG_OF_PERICENTER><MEAN_ANOMALY>259.5086</MEAN_ANOMALY></meanElements><tleParameters><EPHEMERIS_TYPE>0</EPHEMERIS_TYPE><CLASSIFICATION_TYPE>U</CLASSIFICATION_TYPE><NORAD_CAT_ID>25119</NORAD_CAT_ID><ELEMENT_SET_NO>999</ELEMENT_SET_NO><REV_AT_EPOCH>46897</REV_AT_EPOCH><BSTAR>.36977266E-3</BSTAR><MEAN_MOTION_DOT>.121E-4</MEAN_MOTION_DOT><MEAN_MOTION_DDOT>0</MEAN_MOTION_DDOT></tleParameters></data></segment></body></omm>
<omm id="CCSDS_OMM_VERS" version="2.0">
<header><CREATION_DATE/><ORIGINATOR/></header><body><segment><metadata><OBJECT_NAME>ORBCOMM FM03</OBJECT_NAME><OBJECT_ID>1998-007B</OBJECT_ID><CENTER_NAME>EARTH</CENTER_NAME><REF_FRAME>TEME</REF_FRAME><TIME_SYSTEM>UTC</TIME_SYSTEM><MEAN_ELEMENT_THEORY>SGP4</MEAN_ELEMENT_THEORY></metadata><data><meanElements><EPOCH>2025-12-23T10:07:38.552736</EPOCH><MEAN_MOTION>14.35052600</MEAN_MOTION><ECCENTRICITY>.00468385</ECCENTRICITY><INCLINATION>107.9647</INCLINATION><RA_OF_ASC_NODE>164.4598</RA_OF_ASC_NODE><ARG_OF_PERICENTER>276.8750</ARG_OF_PERICENTER><MEAN_ANOMALY>82.7063</MEAN_ANOMALY></meanElements><tleParameters><EPHEMERIS_TYPE>0</EPHEMERIS_TYPE><CLASSIFICATION_TYPE>U</CLASSIFICATION_TYPE><NORAD_CAT_ID>25158</NORAD_CAT_ID><ELEMENT_SET_NO>999</ELEMENT_SET_NO><REV_AT_EPOCH>45118</REV_AT_EPOCH><BSTAR>.45197031E-3</BSTAR><MEAN_MOTION_DOT>.1174E-4</MEAN_MOTION_DOT><MEAN_MOTION_DDOT>0</MEAN_MOTION_DDOT></tleParameters></data></segment></body></omm>
<omm id="CCSDS_OMM_VERS" version="2.0">
<header><CREATION_DATE/><ORIGINATOR/></header><body><segment><metadata><OBJECT_NAME>ORBCOMM FM04</OBJECT_NAME><OBJECT_ID>1998-007C</OBJECT_ID><CENTER_NAME>EARTH</CENTER_NAME><REF_FRAME>TEME</REF_FRAME><TIME_SYSTEM>UTC</TIME_SYSTEM><MEAN_ELEMENT_THEORY>SGP4</MEAN_ELEMENT_THEORY></metadata><data><meanElements><EPOCH>2025-12-23T17:20:10.289184</EPOCH><MEAN_MOTION>14.35299075</MEAN_MOTION><ECCENTRICITY>.00426473</ECCENTRICITY><INCLINATION>107.9639</INCLINATION><RA_OF_ASC_NODE>168.4277</RA_OF_ASC_NODE><ARG_OF_PERICENTER>273.7792</ARG_OF_PERICENTER><MEAN_ANOMALY>85.8472</MEAN_ANOMALY></meanElements><tleParameters><EPHEMERIS_TYPE>0</EPHEMERIS_TYPE><CLASSIFICATION_TYPE>U</CLASSIFICATION_TYPE><NORAD_CAT_ID>25159</NORAD_CAT_ID><ELEMENT_SET_NO>999</ELEMENT_SET_NO><REV_AT_EPOCH>45141</REV_AT_EPOCH><BSTAR>.41498859E-3</BSTAR><MEAN_MOTION_DOT>.107E-4</MEAN_MOTION_DOT><MEAN_MOTION_DDOT>0</MEAN_MOTION_DDOT></tleParameters></data></segment></body></omm>
<omm id="CCSDS_OMM_VERS" version="2.0">
<header><CREATION_DATE/><ORIGINATOR/></header><body><segment><metadata><OBJECT_NAME>ORBCOMM FM17</OBJECT_NAME><OBJECT_ID>1998-046A</OBJECT_ID><CENTER_NAME>EARTH</CENTER_NAME><REF_FRAME>TEME</REF_FRAME><TIME_SYSTEM>UTC</TIME_SYSTEM><MEAN_ELEMENT_THEORY>SGP4</MEAN_ELEMENT_THEORY></metadata><data><meanElements><EPOCH>2025-12-23T22:22:11.823456</EPOCH><MEAN_MOTION>14.35559944</MEAN_MOTION><ECCENTRICITY>.00017257</ECCENTRICITY><INCLINATION>44.9943</INCLINATION><RA_OF_ASC_NODE>81.8134</RA_OF_ASC_NODE><ARG_OF_PERICENTER>130.4181</ARG_OF_PERICENTER><MEAN_ANOMALY>229.6817</MEAN_ANOMALY></meanElements><tleParameters><EPHEMERIS_TYPE>0</EPHEMERIS_TYPE><CLASSIFICATION_TYPE>U</CLASSIFICATION_TYPE><NORAD_CAT_ID>25413</NORAD_CAT_ID><ELEMENT_SET_NO>999</ELEMENT_SET_NO><REV_AT_EPOCH>43043</REV_AT_EPOCH><BSTAR>.3552233E-3</BSTAR><MEAN_MOTION_DOT>.891E-5</MEAN_MOTION_DOT><MEAN_MOTION_DDOT>0</MEAN_MOTION_DDOT></tleParameters></data></segment></body></omm>
<omm id="CCSDS_OMM_VERS" version="2.0">
<header><CREATION_DATE/><ORIGINATOR/></header><body><segment><metadata><OBJECT_NAME>ORBCOMM FM18</OBJECT_NAME><OBJECT_ID>1998-046B</OBJECT_ID><CENTER_NAME>EARTH</CENTER_NAME><REF_FRAME>TEME</REF_FRAME><TIME_SYSTEM>UTC</TIME_SYSTEM><MEAN_ELEMENT_THEORY>SGP4</MEAN_ELEMENT_THEORY></metadata><data><meanElements><EPOCH>2025-12-23T16:41:37.770720</EPOCH><MEAN_MOTION>14.39181327</MEAN_MOTION><ECCENTRICITY>.00036958</ECCENTRICITY><INCLINATION>44.9940</INCLINATION><RA_OF_ASC_NODE>355.1631</RA_OF_ASC_NODE><ARG_OF_PERICENTER>188.8360</ARG_OF_PERICENTER><MEAN_ANOMALY>171.2424</MEAN_ANOMALY></meanElements><tleParameters><EPHEMERIS_TYPE>0</EPHEMERIS_TYPE><CLASSIFICATION_TYPE>U</CLASSIFICATION_TYPE><NORAD_CAT_ID>25414</NORAD_CAT_ID><ELEMENT_SET_NO>999</ELEMENT_SET_NO><REV_AT_EPOCH>43154</REV_AT_EPOCH><BSTAR>.37887727E-3</BSTAR><MEAN_MOTION_DOT>.1042E-4</MEAN_MOTION_DOT><MEAN_MOTION_DDOT>0</MEAN_MOTION_DDOT></tleParameters></data></segment></body></omm>
<omm id="CCSDS_OMM_VERS" version="2.0">
<header><CREATION_DATE/><ORIGINATOR/></header><body><segment><metadata><OBJECT_NAME>ORBCOMM FM19</OBJECT_NAME><OBJECT_ID>1998-046C</OBJECT_ID><CENTER_NAME>EARTH</CENTER_NAME><REF_FRAME>TEME</REF_FRAME><TIME_SYSTEM>UTC</TIME_SYSTEM><MEAN_ELEMENT_THEORY>SGP4</MEAN_ELEMENT_THEORY></metadata><data><meanElements><EPOCH>2025-12-23T18:27:30.220992</EPOCH><MEAN_MOTION>14.39002346</MEAN_MOTION><ECCENTRICITY>.00025276</ECCENTRICITY><INCLINATION>44.9954</INCLINATION><RA_OF_ASC_NODE>357.1033</RA_OF_ASC_NODE><ARG_OF_PERICENTER>196.8682</ARG_OF_PERICENTER><MEAN_ANOMALY>332.8397</MEAN_ANOMALY></meanElements><tleParameters><EPHEMERIS_TYPE>0</EPHEMERIS_TYPE><CLASSIFICATION_TYPE>U</CLASSIFICATION_TYPE><NORAD_CAT_ID>25415</NORAD_CAT_ID><ELEMENT_SET_NO>999</ELEMENT_SET_NO><REV_AT_EPOCH>43150</REV_AT_EPOCH><BSTAR>.41810246E-3</BSTAR><MEAN_MOTION_DOT>.116E-4</MEAN_MOTION_DOT><MEAN_MOTION_DDOT>0</MEAN_MOTION_DDOT></tleParameters></data></segment></body></omm>

</ndm>
