ORBCOMM FM05            
1 25117U 97084F   25357.20706348  .00001194  00000+0  36684-3 0  9990
2 25117  45.0128 180.0000 0002777 103.1147 257.0015 14.46735730467970
ORBCOMM FM06            
1 25118U 97084G   25357.90179638  .00001228  00000+0  37484-3 0  9991
2 25118  45.0119 176.1694 0001736 115.9215  48.9061 14.46900635468996
ORBCOMM FM07            
1 25119U 97084H   25357.81342695  .00001210  00000+0  36977-3 0  9994
2 25119  45.0116 177.3429 0003533 100.6164 259.5086 14.46912433468978
ORBCOMM FM03            
1 25158U 98007B   25357.42197399  .00001174  00000+0  45197-3 0  9992
2 25158 107.9647 164.4598 0046838 276.8750  82.7063 14.35052600451189
ORBCOMM FM04            
1 25159U 98007C   25357.72234131  .00001070  00000+0  41499-3 0  9998
2 25159 107.9639 168.4277 0042647 273.7792  85.8472 14.35299075451418
ORBCOMM FM17            
1 25413U 98046A   25357.93208129  .00000891  00000+0  35522-3 0  9995
2 25413  44.9943  81.8134 0001725 130.4181 229.6817 14.35559944430436
ORBCOMM FM18            
1 25414U 98046B   25357.69557605  .00001042  00000+0  37888-3 0  9991
2 25414  44.9940 355.1631 0003695 188.8360 171.2424 14.39181327431546
ORBCOMM FM19            
1 25415U 98046C   25357.76909978  .00001160  00000+0  41810-3 0  9995
2 25415  44.9954 357.1033 0002527 196.8682 332.8397 14.39002346431502
